[{"OBJECT_NAME":"TIANMU-1 08","OBJECT_ID":"2023-101B","EPOCH":"2026-03-07T00:03:25.475616","MEAN_MOTION":15.29204229,"ECCENTRICITY":0.00063808,"INCLINATION":97.2717,"RA_OF_ASC_NODE":118.7901,"ARG_OF_PERICENTER":134.2174,"MEAN_ANOMALY":225.9592,"EPHEMERIS_TYPE":0,"CLASSIFICATION_TYPE":"U","NORAD_CAT_ID":57400,"ELEMENT_SET_NO":999,"REV_AT_EPOCH":14602,"BSTAR":1.4774513e-5,"MEAN_MOTION_DOT":3.46e-6,"MEAN_MOTION_DDOT":0},{"OBJECT_NAME":"STARLINK-32883","OBJECT_ID":"2025-018A","EPOCH":"2026-03-09T23:27:33.048576","MEAN_MOTION":15.30195782,"ECCENTRICITY":0.00012183,"INCLINATION":53.1608,"RA_OF_ASC_NODE":308.179,"ARG_OF_PERICENTER":89.2237,"MEAN_ANOMALY":270.8903,"EPHEMERIS_TYPE":0,"CLASSIFICATION_TYPE":"U","NORAD_CAT_ID":62806,"ELEMENT_SET_NO":999,"REV_AT_EPOCH":6413,"BSTAR":0.00073518802,"MEAN_MOTION_DOT":0.00021475,"MEAN_MOTION_DDOT":0}]
