TIANMU-1 08             
1 57400U 23101B   26066.00237819  .00000346  00000+0  14775-4 0  9993
2 57400  97.2717 118.7901 0006380 134.2174 225.9592 15.29204229146020
STARLINK-32883          
1 62806U 25018A   26068.97746584  .00021475  00000+0  73519-3 0  9996
2 62806  53.1608 308.1790 0001218  89.2237 270.8903 15.30195782 64132
